H1 CPF 01  gfz 2022 02 15 13  5462 tandemx   
H2 1003001  6202 36605    2022 02 15 12 59 42 2022 02 20 00 00 42   120 1 1  0 0 0
H9
10 0 59626  76302.000000  0    3561422.027  -2899367.754  -5142716.720
10 0 59626  76422.000000  0    3904021.646  -3465227.916  -4503617.617
10 0 59626  76542.000000  0    4169320.377  -3976157.848  -3785658.682
10 0 59626  76662.000000  0    4353677.321  -4421813.746  -3001339.016
10 0 59626  76782.000000  0    4455025.787  -4792921.749  -2164351.721
10 0 59626  76902.000000  0    4472898.342  -5081476.430  -1289347.911
10 0 59626  77022.000000  0    4408419.102  -5280918.390   -391678.729
10 0 59626  77142.000000  0    4264263.758  -5386284.637    512878.887
10 0 59626  77262.000000  0    4044588.089  -5394329.091   1408406.593
10 0 59626  77382.000000  0    3754925.955  -5303608.393   2279134.577
10 0 59626  77502.000000  0    3402058.472  -5114530.658   3109727.553
10 0 59626  77622.000000  0    2993859.639  -4829367.856   3885562.118
10 0 59626  77742.000000  0    2539121.637  -4452229.367   4592989.415
10 0 59626  77862.000000  0    2047364.886  -3988998.916   5219577.850
10 0 59626  77982.000000  0    1528637.088  -3447236.630   5754331.095
10 0 59626  78102.000000  0     993305.689  -2836048.133   6187878.452
10 0 59626  78222.000000  0     451848.865  -2165924.982   6512633.043
10 0 59626  78342.000000  0     -85350.142  -1448560.100   6722917.646
10 0 59626  78462.000000  0    -608201.156   -696641.654   6815058.664
10 0 59626  78582.000000  0   -1107095.459     76373.083   6787446.841
10 0 59626  78702.000000  0   -1573081.777    856498.588   6640563.360
10 0 59626  78822.000000  0   -1998026.449   1629473.489   6376971.728
10 0 59626  78942.000000  0   -2374755.900   2381020.404   6001275.865
10 0 59626  79062.000000  0   -2697178.741   3097109.937   5520044.647
10 0 59626  79182.000000  0   -2960386.150   3764224.426   4941703.502
10 0 59626  79302.000000  0   -3160729.478   4369617.288   4276393.242
10 0 59626  79422.000000  0   -3295871.957   4901562.707   3535796.803
10 0 59626  79542.000000  0   -3364813.686   5349590.319   2732936.076
10 0 59626  79662.000000  0   -3367888.704   5704698.456   1881941.731
10 0 59626  79782.000000  0   -3306734.639   5959540.276    997800.952
10 0 59626  79902.000000  0   -3184235.209   6108580.444     96088.452
10 0 59626  80022.000000  0   -3004436.869   6148217.004   -807316.378
10 0 59626  80142.000000  0   -2772442.085   6076863.764  -1696519.437
10 0 59626  80262.000000  0   -2494279.603   5894990.071  -2555902.589
10 0 59626  80382.000000  0   -2176756.308   5605117.139  -3370403.264
10 0 59626  80502.000000  0   -1827297.318   5211776.577  -4125780.367
10 0 59626  80622.000000  0   -1453777.102   4721428.406  -4808862.523
10 0 59626  80742.000000  0   -1064346.490   4142343.890  -5407771.808
10 0 59626  80862.000000  0    -667258.841   3484457.020  -5912122.914
10 0 59626  80982.000000  0    -270698.416   2759185.670  -6313194.257
10 0 59626  81102.000000  0     117384.590   1979227.182  -6604066.848
10 0 59626  81222.000000  0     489428.485   1158335.136  -6779732.314
10 0 59626  81342.000000  0     838402.992    311078.644  -6837170.810
10 0 59626  81462.000000  0    1157938.548   -547411.887  -6775397.039
10 0 59626  81582.000000  0    1442439.097  -1401709.337  -6595473.990
10 0 59626  81702.000000  0    1687177.465  -2236359.202  -6300495.896
10 0 59626  81822.000000  0    1888373.268  -3036151.996  -5895541.790
10 0 59626  81942.000000  0    2043251.445  -3786397.040  -5387598.916
10 0 59626  82062.000000  0    2150080.519  -4473193.630  -4785452.539
10 0 59626  82182.000000  0    2208189.348  -5083690.167  -4099543.898
10 0 59626  82302.000000  0    2217962.547  -5606330.009  -3341800.227
10 0 59626  82422.000000  0    2180813.947  -6031079.578  -2525435.728
10 0 59626  82542.000000  0    2099138.191  -6349632.532  -1664726.039
10 0 59626  82662.000000  0    1976240.120  -6555583.230   -774759.151
10 0 59626  82782.000000  0    1816246.912  -6644566.038    128832.838
10 0 59626  82902.000000  0    1624000.241  -6614352.387   1030155.140
10 0 59626  83022.000000  0    1404934.451  -6464908.971   1913337.155
10 0 59626  83142.000000  0    1164941.828  -6198409.196   2762823.157
10 0 59626  83262.000000  0     910229.030  -5819199.026   3563653.917
10 0 59626  83382.000000  0     647168.412  -5333720.575   4301736.103
10 0 59626  83502.000000  0     382148.606  -4750394.812   4964093.451
10 0 59626  83622.000000  0     121426.965  -4079466.099   5539095.945
10 0 59626  83742.000000  0    -129010.980  -3332812.076   6016662.218
10 0 59626  83862.000000  0    -363582.663  -2523723.534   6388431.448
10 0 59626  83982.000000  0    -577228.158  -1666661.820   6647902.130
10 0 59626  84102.000000  0    -765515.452   -776998.023   6790540.033
10 0 59626  84222.000000  0    -924729.954    129264.308   6813853.920
10 0 59626  84342.000000  0   -1051946.891   1035777.711   6717436.514
10 0 59626  84462.000000  0   -1145084.528   1926145.351   6502970.856
10 0 59626  84582.000000  0   -1202937.992   2784217.032   6174202.739
10 0 59626  84702.000000  0   -1225193.815   3594382.679   5736879.399
10 0 59626  84822.000000  0   -1212424.293   4341858.741   5198654.284
10 0 59626  84942.000000  0   -1166061.554   5012962.650   4568959.654
10 0 59626  85062.000000  0   -1088352.814   5595371.299   3858846.125
10 0 59626  85182.000000  0    -982296.099   6078355.047   3080791.699
10 0 59626  85302.000000  0    -851560.723   6452986.394   2248485.286
10 0 59626  85422.000000  0    -700390.032   6712315.975   1376581.594
10 0 59626  85542.000000  0    -533490.109   6851508.247    480437.543
10 0 59626  85662.000000  0    -355907.943   6867936.688   -424165.051
10 0 59626  85782.000000  0    -172901.827   6761235.710  -1321306.733
10 0 59626  85902.000000  0      10192.422   6533304.447  -2195221.010
10 0 59626  86022.000000  0     188094.931   6188263.973  -3030577.861
10 0 59626  86142.000000  0     355712.484   5732372.951  -3812756.151
10 0 59626  86262.000000  0     508263.979   5173902.447  -4528100.546
10 0 59626  86382.000000  0     641397.226   4522973.242  -5164157.226
10 0 59627    102.000000  0     751294.380   3791360.815  -5709884.280
10 0 59627    222.000000  0     834763.303   2992272.796  -6155834.472
10 0 59627    342.000000  0     889313.277   2140103.760  -6494307.761
10 0 59627    462.000000  0     913214.407   1250173.816  -6719472.053
10 0 59627    582.000000  0     905539.057    338455.240  -6827453.966
10 0 59627    702.000000  0     866185.600   -578709.827  -6816398.415
10 0 59627    822.000000  0     795883.420  -1484896.346  -6686495.888
10 0 59627    942.000000  0     696179.698  -2363881.975  -6439978.077
10 0 59627   1062.000000  0     569408.593  -3199929.544  -6081085.597
10 0 59627   1182.000000  0     418641.641  -3978066.308  -5616004.184
10 0 59627   1302.000000  0     247621.465  -4684351.199  -5052767.250
10 0 59627   1422.000000  0      60679.586  -5306127.256  -4401128.998
10 0 59627   1542.000000  0    -137361.335  -5832255.787  -3672406.757
10 0 59627   1662.000000  0    -341298.406  -6253326.084  -2879293.083
10 0 59627   1782.000000  0    -545670.560  -6561835.775  -2035641.208
10 0 59627   1902.000000  0    -744889.188  -6752338.370  -1156225.417
10 0 59627   2022.000000  0    -933374.038  -6821551.496   -256479.949
10 0 59627   2142.000000  0   -1105691.130  -6768422.650    647777.068
10 0 59627   2262.000000  0   -1256689.463  -6594151.122   1540628.820
10 0 59627   2382.000000  0   -1381632.915  -6302164.807   2406349.119
10 0 59627   2502.000000  0   -1476323.384  -5898051.256   3229688.731
10 0 59627   2622.000000  0   -1537211.941  -5389445.189   3996152.005
10 0 59627   2742.000000  0   -1561494.561  -4785875.127   4692256.559
10 0 59627   2862.000000  0   -1547191.705  -4098576.123   5305771.442
10 0 59627   2982.000000  0   -1493209.828  -3340271.529   5825932.371
10 0 59627   3102.000000  0   -1399382.249  -2524927.011   6243627.013
10 0 59627   3222.000000  0   -1266488.674  -1667486.726   6551547.622
10 0 59627   3342.000000  0   -1096254.688   -783596.347   6744313.074
10 0 59627   3462.000000  0    -891331.603    110684.928   6818557.598
10 0 59627   3582.000000  0    -655255.844    999175.949   6772985.574
10 0 59627   3702.000000  0    -392387.640   1865866.048   6608393.331
10 0 59627   3822.000000  0    -107830.486   2695203.361   6327655.946
10 0 59627   3942.000000  0     192666.993   3472373.909   5935679.914
10 0 59627   4062.000000  0     502824.717   4183568.394   5439322.586
10 0 59627   4182.000000  0     815959.386   4816231.780   4847277.973
10 0 59627   4302.000000  0    1125125.404   5359291.827   4169930.007
10 0 59627   4422.000000  0    1423263.596   5803360.223   3419174.314
10 0 59627   4542.000000  0    1703358.053   6140905.612   2608214.686
10 0 59627   4662.000000  0    1958596.831   6366392.368   1751326.871
10 0 59627   4782.000000  0    2182528.687   6476378.066    863602.248
10 0 59627   4902.000000  0    2369215.986   6469568.495    -39325.683
10 0 59627   5022.000000  0    2513377.461   6346829.675   -941564.181
10 0 59627   5142.000000  0    2610518.544   6111157.344  -1827249.022
10 0 59627   5262.000000  0    2657046.039   5767603.971  -2680830.771
10 0 59627   5382.000000  0    2650363.894   5323165.511  -3487353.961
10 0 59627   5502.000000  0    2588947.558   4786629.668  -4232722.656
10 0 59627   5622.000000  0    2472394.879   4168391.506  -4903945.501
10 0 59627   5742.000000  0    2301453.429   3480242.227  -5489356.730
10 0 59627   5862.000000  0    2078024.683   2735136.852  -5978810.667
10 0 59627   5982.000000  0    1805144.662   1946944.709  -6363847.464
10 0 59627   6102.000000  0    1486942.134   1130189.235  -6637826.979
10 0 59627   6222.000000  0    1128576.396    299782.376  -6796032.636
10 0 59627   6342.000000  0     736153.388   -529243.509  -6835744.666
99
